[{"OBJECT_NAME":"STARLINK-33811","OBJECT_ID":"2025-071M","EPOCH":"2026-03-09T11:36:53.715456","MEAN_MOTION":15.30172945,"ECCENTRICITY":0.00012429,"INCLINATION":53.1576,"RA_OF_ASC_NODE":141.2165,"ARG_OF_PERICENTER":78.1832,"MEAN_ANOMALY":281.9308,"EPHEMERIS_TYPE":0,"CLASSIFICATION_TYPE":"U","NORAD_CAT_ID":63504,"ELEMENT_SET_NO":999,"REV_AT_EPOCH":5267,"BSTAR":0.00055027257,"MEAN_MOTION_DOT":0.0001596,"MEAN_MOTION_DDOT":0},{"OBJECT_NAME":"ELECTRON KICK STAGE R\/B","OBJECT_ID":"2023-100H","EPOCH":"2026-03-09T16:45:37.763136","MEAN_MOTION":14.68103413,"ECCENTRICITY":0.03085221,"INCLINATION":99.3329,"RA_OF_ASC_NODE":332.428,"ARG_OF_PERICENTER":173.253,"MEAN_ANOMALY":187.2976,"EPHEMERIS_TYPE":0,"CLASSIFICATION_TYPE":"U","NORAD_CAT_ID":57393,"ELEMENT_SET_NO":999,"REV_AT_EPOCH":14066,"BSTAR":0.00057943845,"MEAN_MOTION_DOT":6.836e-5,"MEAN_MOTION_DDOT":0}]
